[{"OBJECT_NAME":"SDA_1667","OBJECT_ID":"2025-230D","EPOCH":"2026-03-09T17:13:30.645984","MEAN_MOTION":13.84901461,"ECCENTRICITY":0.00041039,"INCLINATION":81.2986,"RA_OF_ASC_NODE":303.9273,"ARG_OF_PERICENTER":81.7759,"MEAN_ANOMALY":278.3863,"EPHEMERIS_TYPE":0,"CLASSIFICATION_TYPE":"U","NORAD_CAT_ID":65977,"ELEMENT_SET_NO":999,"REV_AT_EPOCH":2004,"BSTAR":0.00023812804,"MEAN_MOTION_DOT":2.81e-6,"MEAN_MOTION_DDOT":0},{"OBJECT_NAME":"UNKNOWN","OBJECT_ID":"","EPOCH":"2026-03-04T17:54:07.486272","MEAN_MOTION":13.82274067,"ECCENTRICITY":0.0039118,"INCLINATION":100.4046,"RA_OF_ASC_NODE":65.3082,"ARG_OF_PERICENTER":183.0651,"MEAN_ANOMALY":355.2593,"EPHEMERIS_TYPE":0,"CLASSIFICATION_TYPE":"U","NORAD_CAT_ID":81392,"ELEMENT_SET_NO":999,"REV_AT_EPOCH":61350,"BSTAR":0.0034598,"MEAN_MOTION_DOT":3.705e-5,"MEAN_MOTION_DDOT":0}]
